IXPE                    
1 49954U 21121A   24145.91667824  .00008887  00000+0  66422-3 0  9990
2 49954   0.2292 206.4717 0009735 293.1241 258.4580 14.97971225  5791
